BEIDOU 3 (C01)          
1 36287U 10001A   21340.41629823 -.00000277  00000+0  00000+0 0  9998
2 36287   1.7633  44.0346 0001143  53.3209 268.3259  1.00268545 43575
BEIDOU 5 (C06)          
1 36828U 10036A   21340.24190255 -.00000045  00000+0  00000+0 0  9993
2 36828  54.1803 178.0080 0023661 174.3881 274.7272  1.00254076 41645
BEIDOU 6 (C04)          
1 37210U 10057A   21340.59632675 -.00000108  00000+0  00000+0 0  9997
2 37210   0.8253  45.3066 0007188 160.7366 244.3159  1.00270414 40708
BEIDOU 7 (C07)          
1 37256U 10068A   21340.23515833 -.00000211  00000+0  00000+0 0  9991
2 37256  50.5606 291.9592 0015946 190.3827 144.0524  1.00254385 40203
BEIDOU 8 (C08)          
1 37384U 11013A   21338.93908924 -.00000200  00000+0  00000+0 0  9993
2 37384  60.0138  56.1979 0019437 188.0418 272.6007  1.00261832 39072
BEIDOU 9 (C09)          
1 37763U 11038A   21340.23743148 -.00000011  00000+0  00000+0 0  9992
2 37763  54.4667 180.4755 0086114 225.4233 210.5242  1.00274875 38068
BEIDOU 10 (C10)         
1 37948U 11073A   21340.33535963 -.00000154  00000+0  00000+0 0  9999
2 37948  50.6714 291.5806 0077441 218.9562 138.4844  1.00254800 36813
BEIDOU 11 (C05)         
1 38091U 12008A   21340.47176910  .00000061  00000+0  00000+0 0  9992
2 38091   1.9289  71.1513 0004425 267.7268 325.1256  1.00271246 35895
BEIDOU 12 (C11)         
1 38250U 12018A   21340.32895571 -.00000082  00000+0  00000+0 0  9999
2 38250  56.7328 359.9465 0025762 251.7996  77.2600  1.86232983 65480
BEIDOU 13 (C12)         
1 38251U 12018B   21339.51321478 -.00000078  00000+0  00000+0 0  9994
2 38251  56.6553 359.3037 0015705 252.1529 294.3286  1.86234234 65474
BEIDOU 15 (C14)         
1 38775U 12050B   21340.42426968  .00000022  00000+0  00000+0 0  9991
2 38775  55.2935 118.1869 0011491 327.4689 306.8659  1.86231307 62860
BEIDOU 16 (C02)         
1 38953U 12059A   21340.62035554 -.00000171  00000+0  00000+0 0  9993
2 38953   1.5123  84.4040 0010648 276.8632  21.7240  1.00269679 33467
BEIDOU 17 (C31)         
1 40549U 15019A   21340.40722753 -.00000188  00000+0  00000+0 0  9994
2 40549  52.2155 314.9965 0037021 191.4081 171.3492  1.00284475 24507
BEIDOU 18 (C57)         
1 40748U 15037A   21339.36924346 -.00000079  00000+0  00000+0 0  9999
2 40748  55.9149 358.2923 0002925 322.1758  37.4952  1.86233285 43292
BEIDOU 19 (C58)         
1 40749U 15037B   21340.33146727 -.00000084  00000+0  00000+0 0  9994
2 40749  55.9172 358.2506 0005784 293.4427 126.6802  1.86232241 43314
BEIDOU 20 (C18)         
1 40938U 15053A   21340.23942455 -.00000143  00000+0  00000+0 0  9999
2 40938  51.8028 278.0944 0043288 196.2738 141.4906  1.00289175 22760
BEIDOU IGSO-6 (C13)     
1 41434U 16021A   21339.68939168 -.00000180  00000+0  00000+0 0  9992
2 41434  57.8184  54.8517 0044909 213.8265 150.1303  1.00279727 20891
BEIDOU-2 G7 (C03)       
1 41586U 16037A   21340.62515228 -.00000351  00000+0  00000+0 0  9990
2 41586   1.5538  65.8103 0008007   3.7967 341.6059  1.00274548 20201
BEIDOU-3 M1 (C19)       
1 43001U 17069A   21340.21985970  .00000022  00000+0  00000+0 0  9994
2 43001  55.4472 118.1682 0007203 286.9336   6.4588  1.86231703 27790
BEIDOU-3 M2 (C20)       
1 43002U 17069B   21340.15407938  .00000022  00000+0  00000+0 0  9991
2 43002  55.4466 118.2062 0005633 319.5406 332.9832  1.86231409 27784
BEIDOU-3 M3 (C27)       
1 43107U 18003A   21340.49045432 -.00000086  00000+0  00000+0 0  9991
2 43107  55.3605 359.2579 0003262  45.1022 278.9066  1.86232584 26553
BEIDOU-3 M4 (C28)       
1 43108U 18003B   21340.43174148 -.00000086  00000+0  00000+0 0  9993
2 43108  55.3556 359.2504 0004280 249.8889  79.7216  1.86230818 26554
BEIDOU-3 M5 (C21)       
1 43207U 18018A   21340.38685000  .00000022  00000+0  00000+0 0  9996
2 43207  55.4074 118.2828 0003882   0.0331 359.9263  1.86231580 25942
BEIDOU-3 M6 (C22)       
1 43208U 18018B   21339.91662036  .00000021  00000+0  00000+0 0  9997
2 43208  55.4056 118.3038 0005298 302.7632  57.1456  1.86231654 25938
BEIDOU-3 M7 (C29)       
1 43245U 18029A   21340.39033396 -.00000085  00000+0  00000+0 0  9996
2 43245  55.2833 357.0424 0001310 255.7970 271.3940  1.86232697 25097
BEIDOU-3 M8 (C30)       
1 43246U 18029B   21340.03904863 -.00000083  00000+0  10000-3 0  9997
2 43246  55.2815 357.0848 0003853 333.4413   4.6005  1.86233008 25072
BEIDOU IGSO-7 (C16)     
1 43539U 18057A   21340.07896688 -.00000058  00000+0  00000+0 0  9999
2 43539  55.0615 177.4218 0040068 221.0526 178.4955  1.00269314 12574
BEIDOU-3 M9 (C23)       
1 43581U 18062A   21340.55434785  .00000023  00000+0  00000+0 0  9992
2 43581  54.3381 238.6949 0004315 297.3319 236.6513  1.86231962 22834
BEIDOU-3 M10 (C24)      
1 43582U 18062B   21340.42702608  .00000025  00000+0  00000+0 0  9993
2 43582  54.3377 238.6890 0006410 359.3313 180.8592  1.86232458 22834
BEIDOU-3 M11 (C25)      
1 43602U 18067A   21340.35943188  .00000028  00000+0  00000+0 0  9996
2 43602  54.4167 237.2890 0007656   3.1941 173.4747  1.86231592 22326
BEIDOU-3 M12 (C26)      
1 43603U 18067B   21340.47301691  .00000026  00000+0  00000+0 0  9995
2 43603  54.4135 237.2523 0004907 353.4222 169.8183  1.86231515 22344
BEIDOU-3 M13 (C32)      
1 43622U 18072A   21340.64565332  .00000022  00000+0  00000+0 0  9991
2 43622  55.3720 117.8370 0004219 276.6126  32.2495  1.86231500 21851
BEIDOU-3 M14 (C33)      
1 43623U 18072B   21340.42283162  .00000022  00000+0  00000+0 0  9996
2 43623  55.3741 117.8357 0002255 326.2425 283.4644  1.86231623 21854
BEIDOU-3 M15 (C34)      
1 43647U 18078A   21340.15377965 -.00000084  00000+0  10000-3 0  9997
2 43647  55.1781 357.2255 0006010 346.6684 337.9333  1.86232892 21359
BEIDOU-3 M16 (C35)      
1 43648U 18078B   21340.34905291 -.00000085  00000+0  00000+0 0  9994
2 43648  55.1729 357.2269 0003746 352.0743  11.5946  1.86232370 21386
BEIDOU-3 G1 (C59)       
1 43683U 18085A   21340.56160637 -.00000274  00000+0  00000+0 0  9992
2 43683   0.8601 201.3351 0004699  47.3716 169.0070  1.00267044 11472
BEIDOU-3 M17 (C36)      
1 43706U 18093A   21339.95939182  .00000031  00000+0  00000+0 0  9997
2 43706  54.4184 238.5869 0008947 284.1315  75.8477  1.86231692 20739
BEIDOU-3 M18 (C37)      
1 43707U 18093B   21340.60789641  .00000023  00000+0  00000+0 0  9996
2 43707  54.4196 238.5546 0008709 307.3554 218.4550  1.86232279 20733
BEIDOU-3 IGSO-1 (C38)   
1 44204U 19023A   21340.48986990 -.00000236  00000+0  00000+0 0  9992
2 44204  56.2752  55.0573 0023255 190.4803 125.2230  1.00269329  9770
BEIDOU-2 G8             
1 44231U 19027A   21340.56160637 -.00000243  00000+0  00000+0 0  9995
2 44231   0.4283  57.5894 0006511 154.4381 210.2683  1.00269651  9494
BEIDOU-3 IGSO-2 (C39)   
1 44337U 19035A   21340.42445330 -.00000066  00000+0  00000+0 0  9995
2 44337  55.1180 173.4499 0020661 176.4290 356.8111  1.00258833  9110
BEIDOU-3 M23 (C45)      
1 44542U 19061A   21340.22381042  .00000028  00000+0  10000-3 0  9991
2 44542  54.6446 238.6805 0009219 337.7901 243.0210  1.86231672 14983
BEIDOU-3 M24 (C46)      
1 44543U 19061B   21340.42704509  .00000026  00000+0  10000-3 0  9999
2 44543  54.6435 238.6444 0006411 330.9813 297.1459  1.86231945 14987
BEIDOU-3 IGSO-3         
1 44709U 19073A   21340.64995076 -.00000201  00000+0  00000+0 0  9992
2 44709  57.5748 298.3802 0018878 187.3013 303.4475  1.00265534  7873
BEIDOU-3 M21            
1 44793U 19078A   21340.42230978 -.00000085  00000+0  10000-3 0  9994
2 44793  55.0262 357.2620 0005673 355.0353 103.8068  1.86232413 13852
BEIDOU-3 M22            
1 44794U 19078B   21339.32896563 -.00000080  00000+0  00000+0 0  9990
2 44794  55.0013 357.2951 0003823 343.4717  13.6282  1.86232892 13828
BEIDOU-3 M19            
1 44864U 19090A   21339.95158250  .00000021  00000+0  00000+0 0  9999
2 44864  55.3068 118.0810 0014539 263.0990 346.0076  1.86231851 13426
BEIDOU-3 M20            
1 44865U 19090B   21340.35886132  .00000022  00000+0  00000+0 0  9994
2 44865  55.3091 118.0989 0012687 279.3416 332.7222  1.86231810 13403
BEIDOU-3 G2             
1 45344U 20017A   21340.49146647 -.00000137  00000+0  00000+0 0  9991
2 45344   2.2305 343.2158 0001449 187.5485 161.7243  1.00270927  6677
BEIDOU-3 G3             
1 45807U 20040A   21340.57827006 -.00000349  00000+0  00000+0 0  9990
2 45807   1.8864 299.8210 0009262 344.3527 110.0796  1.00275874  5509
